OBJECT_NAME,OBJECT_ID,EPOCH,MEAN_MOTION,ECCENTRICITY,INCLINATION,RA_OF_ASC_NODE,ARG_OF_PERICENTER,MEAN_ANOMALY,EPHEMERIS_TYPE,CLASSIFICATION_TYPE,NORAD_CAT_ID,ELEMENT_SET_NO,REV_AT_EPOCH,BSTAR,MEAN_MOTION_DOT,MEAN_MOTION_DDOT
INTELSAT 23 (IS-23),2012-057A,2026-07-20T07:25:49.571328,1.00276317,.00004436,0.0184,19.0255,108.9139,228.5902,0,U,38867,999,5028,0,-.286E-5,0
FM-6,2013-058A,2026-07-20T07:32:45.898368,1.00266599,.00014211,0.0094,30.1160,148.1432,116.6637,0,U,39360,999,4640,0,-.17E-6,0
INTELSAT 30 (IS-30),2014-062A,2026-07-20T06:31:53.511168,1.00272057,.00016755,0.0157,54.2226,338.6165,268.1361,0,U,40271,999,712,0,-.153E-5,0
DIRECTV 14,2014-078B,2026-07-20T04:38:03.223104,1.00270627,.00004011,0.0157,57.4610,335.1531,235.6144,0,U,40333,999,4237,0,-.127E-5,0
DIRECTV 15,2015-026A,2026-07-20T07:16:33.252096,1.00272551,.0000388,0.0208,80.9491,353.8082,229.5734,0,U,40663,999,4079,0,-.104E-5,0
SKY MEXICO-1,2015-026B,2026-07-20T06:37:56.341056,1.00270367,.00026107,0.0372,236.6845,257.7175,184.3374,0,U,40664,999,4078,0,-.236E-5,0
INTELSAT 34 (IS-34),2015-039A,2026-07-20T05:01:59.922048,1.00272512,.00005935,0.0089,359.7478,23.9138,294.3353,0,U,40874,999,3996,0,-.288E-5,0
INTELSAT 31 (IS-31),2016-035A,2026-07-20T06:31:53.486976,1.00272141,.00009339,0.0289,262.8216,43.7159,354.4363,0,U,41581,999,3701,0,-.153E-5,0
INTELSAT 36 (IS-36),2016-053A,2026-07-20T03:11:24.417600,1.00270817,.00025585,0.0091,19.1364,329.9629,65.1537,0,U,41747,999,3628,0,-.26E-6,0
INTELSAT 32E (IS-32E),2017-007B,2026-07-20T04:22:09.957216,1.00273178,.00008208,0.0163,46.7527,5.0321,268.5476,0,U,41945,999,3455,0,0,0
INTELSAT 35E (IS-35E),2017-041A,2026-07-20T06:07:19.700832,1.00272028,.00021161,0.0147,61.2425,56.6691,237.4498,0,U,42818,999,3314,0,-.24E-5,0
INTELSAT 37E (IS-37E),2017-059A,2026-07-20T06:11:56.758848,1.00269582,.00026897,0.0191,64.7902,57.1844,251.0408,0,U,42950,999,3239,0,-.143E-5,0
AZERSPACE 2 (IS-38),2018-074A,2026-07-20T04:47:22.540416,1.00271872,.00015171,0.0156,52.7211,57.8526,304.3517,0,U,43632,999,2877,0,.134E-5,0
HORIZONS-3E,2018-074B,2026-07-20T05:22:41.653344,1.00271929,.00005666,0.0423,237.8127,62.1314,247.7135,0,U,43633,999,2867,0,-.33E-6,0
AT&T T-16,2019-034A,2026-07-20T06:26:38.919264,1.00272332,.00008481,0.0134,70.9458,294.5116,288.3967,0,U,44333,999,2596,0,-.117E-5,0
INTELSAT 39 (IS-39),2019-049B,2026-07-20T04:52:07.084992,1.00271521,.00008977,0.0145,55.7602,307.2746,69.9119,0,U,44476,999,2545,0,.31E-6,0
GALAXY 30 (G-30),2020-056C,2026-07-20T05:41:29.677920,1.00263090,.00020844,0.0191,58.0870,68.1467,132.1475,0,U,46114,999,2162,0,.36E-6,0
GALAXY 33 (G-33),2022-128A,2026-07-20T05:39:14.893920,1.00269948,.00018648,0.0212,307.3098,184.2285,118.2643,0,U,54026,999,1407,0,.77E-6,0
GALAXY 34 (G-34),2022-128B,2026-07-20T03:11:44.889216,1.00271722,.00017071,0.0162,50.6641,82.0286,84.1684,0,U,54027,999,1424,0,0,0
GALAXY 31 (G-31),2022-153A,2026-07-20T06:21:52.112736,1.00272763,.00012254,0.0053,234.4466,247.2815,150.7664,0,U,54243,999,746,0,.11E-6,0
GALAXY 32 (G-32),2022-153B,2026-07-20T06:33:15.583392,1.00271897,.00013937,0.0100,31.2467,20.8331,253.2849,0,U,54244,999,1347,0,-.176E-5,0
GALAXY 35 (G-35),2022-170A,2026-07-20T06:32:25.544832,1.00272212,.00019837,0.0198,95.1025,21.6255,186.3172,0,U,54741,999,1322,0,-.164E-5,0
GALAXY 36 (G-36),2022-170B,2026-07-20T05:51:43.696800,1.00271711,.00026991,0.0198,137.2058,323.3400,196.4046,0,U,54742,999,1310,0,-.187E-5,0
GALAXY 37 (G-37),2023-112A,2026-07-20T05:40:52.238208,1.00272377,.00020602,0.0196,56.0364,60.3633,139.8229,0,U,57493,999,1087,0,.46E-6,0
