INTELSAT 23 (IS-23)     
1 38867U 12057A   26201.30960152 -.00000286  00000+0  00000+0 0  9999
2 38867   0.0184  19.0255 0000443 108.9139 228.5902  1.00276317 50281
FM-6                    
1 39360U 13058A   26201.31442012 -.00000017  00000+0  00000+0 0  9993
2 39360   0.0094  30.1160 0001421 148.1432 116.6637  1.00266599 46400
INTELSAT 30 (IS-30)     
1 40271U 14062A   26201.27214712 -.00000153  00000+0  00000+0 0  9992
2 40271   0.0157  54.2226 0001675 338.6165 268.1361  1.00272057  7122
DIRECTV 14              
1 40333U 14078B   26201.19309286 -.00000127  00000+0  00000+0 0  9991
2 40333   0.0157  57.4610 0000401 335.1531 235.6144  1.00270627 42373
DIRECTV 15              
1 40663U 15026A   26201.30316264 -.00000104  00000+0  00000+0 0  9993
2 40663   0.0208  80.9491 0000388 353.8082 229.5734  1.00272551 40795
SKY MEXICO-1            
1 40664U 15026B   26201.27634654 -.00000236  00000+0  00000+0 0  9992
2 40664   0.0372 236.6845 0002610 257.7175 184.3374  1.00270367 40786
INTELSAT 34 (IS-34)     
1 40874U 15039A   26201.20972132 -.00000288  00000+0  00000+0 0  9995
2 40874   0.0089 359.7478 0000593  23.9138 294.3353  1.00272512 39964
INTELSAT 31 (IS-31)     
1 41581U 16035A   26201.27214684 -.00000153  00000+0  00000+0 0  9997
2 41581   0.0289 262.8216 0000933  43.7159 354.4363  1.00272141 37018
INTELSAT 36 (IS-36)     
1 41747U 16053A   26201.13292150 -.00000026  00000+0  00000+0 0  9999
2 41747   0.0091  19.1364 0002558 329.9629  65.1537  1.00270817 36281
INTELSAT 32E (IS-32E)   
1 41945U 17007B   26201.18205969  .00000000  00000+0  00000+0 0  9997
2 41945   0.0163  46.7527 0000820   5.0321 268.5476  1.00273178 34551
INTELSAT 35E (IS-35E)   
1 42818U 17041A   26201.25508913 -.00000240  00000+0  00000+0 0  9995
2 42818   0.0147  61.2425 0002116  56.6691 237.4498  1.00272028 33140
INTELSAT 37E (IS-37E)   
1 42950U 17059A   26201.25829582 -.00000143  00000+0  00000+0 0  9991
2 42950   0.0191  64.7902 0002689  57.1844 251.0408  1.00269582 32395
AZERSPACE 2 (IS-38)     
1 43632U 18074A   26201.19956644  .00000134  00000+0  00000+0 0  9999
2 43632   0.0156  52.7211 0001517  57.8526 304.3517  1.00271872 28772
HORIZONS-3E             
1 43633U 18074B   26201.22409321 -.00000033  00000+0  00000+0 0  9998
2 43633   0.0423 237.8127 0000566  62.1314 247.7135  1.00271929 28677
AT&T T-16               
1 44333U 19034A   26201.26850601 -.00000117  00000+0  00000+0 0  9991
2 44333   0.0134  70.9458 0000848 294.5116 288.3967  1.00272332 25963
INTELSAT 39 (IS-39)     
1 44476U 19049B   26201.20285978  .00000031  00000+0  00000+0 0  9992
2 44476   0.0145  55.7602 0000897 307.2746  69.9119  1.00271521 25455
GALAXY 30 (G-30)        
1 46114U 20056C   26201.23714905  .00000036  00000+0  00000+0 0  9998
2 46114   0.0191  58.0870 0002084  68.1467 132.1475  1.00263090 21628
GALAXY 33 (G-33)        
1 54026U 22128A   26201.23558905  .00000077  00000+0  00000+0 0  9992
2 54026   0.0212 307.3098 0001864 184.2285 118.2643  1.00269948 14079
GALAXY 34 (G-34)        
1 54027U 22128B   26201.13315844  .00000000  00000+0  00000+0 0  9991
2 54027   0.0162  50.6641 0001707  82.0286  84.1684  1.00271722 14246
GALAXY 31 (G-31)        
1 54243U 22153A   26201.26518649  .00000011  00000+0  00000+0 0  9993
2 54243   0.0053 234.4466 0001225 247.2815 150.7664  1.00272763  7460
GALAXY 32 (G-32)        
1 54244U 22153B   26201.27309703 -.00000176  00000+0  00000+0 0  9997
2 54244   0.0100  31.2467 0001393  20.8331 253.2849  1.00271897 13471
GALAXY 35 (G-35)        
1 54741U 22170A   26201.27251788 -.00000164  00000+0  00000+0 0  9994
2 54741   0.0198  95.1025 0001983  21.6255 186.3172  1.00272212 13228
GALAXY 36 (G-36)        
1 54742U 22170B   26201.24425575 -.00000187  00000+0  00000+0 0  9994
2 54742   0.0198 137.2058 0002699 323.3400 196.4046  1.00271711 13104
GALAXY 37 (G-37)        
1 57493U 23112A   26201.23671572  .00000046  00000+0  00000+0 0  9999
2 57493   0.0196  56.0364 0002060  60.3633 139.8229  1.00272377 10878
